OBJECT_NAME,OBJECT_ID,EPOCH,MEAN_MOTION,ECCENTRICITY,INCLINATION,RA_OF_ASC_NODE,ARG_OF_PERICENTER,MEAN_ANOMALY,EPHEMERIS_TYPE,CLASSIFICATION_TYPE,NORAD_CAT_ID,ELEMENT_SET_NO,REV_AT_EPOCH,BSTAR,MEAN_MOTION_DOT,MEAN_MOTION_DDOT
HYLAS 2,2012-043B,2026-06-11T21:27:17.402688,1.00272103,.00024791,2.4129,81.1305,23.7052,44.6609,0,U,38741,999,5072,0,-.242E-5,0
INTELSAT 21 (IS-21),2012-045A,2026-06-11T22:59:57.371424,1.00272216,.00013104,0.0174,292.1702,161.3743,93.7423,0,U,38749,999,5047,0,-.269E-5,0
ASTRA 2F,2012-051A,2026-06-11T22:50:56.816736,1.00274087,.00017141,0.0758,259.9934,279.3197,91.9354,0,U,38778,999,4108,0,.166E-5,0
GSAT-10,2012-051B,2026-06-11T11:55:49.330272,1.00269530,.0007747,0.0170,344.7003,106.3247,70.7939,0,U,38779,999,5004,0,0,0
INTELSAT 23 (IS-23),2012-057A,2026-06-11T23:05:24.690912,1.00268120,.0000076,0.0122,311.8277,221.3491,20.4699,0,U,38867,999,4990,0,-.269E-5,0
BEIDOU-2 G6,2012-059A,2026-06-11T22:27:17.243136,1.00273293,.00098101,4.4067,73.5814,324.8626,282.6734,0,U,38953,999,4985,0,-.162E-5,0
LUCH-5B,2012-061A,2026-06-10T23:28:44.789088,1.00273172,.00019402,10.4672,49.9410,141.4195,43.8723,0,U,38977,999,4954,0,-.127E-5,0
STAR ONE C3,2012-062A,2026-06-11T21:26:39.962976,1.00272463,.000219,0.0180,51.7105,41.3619,53.8373,0,U,38991,999,4971,0,-.233E-5,0
EUTELSAT 21B,2012-062B,2026-06-11T22:16:21.758304,1.00272656,.00030735,0.0654,0.9857,77.6722,177.2722,0,U,38992,999,4977,0,.146E-5,0
ECHOSTAR 16,2012-065A,2026-06-11T21:30:32.092128,1.00271805,.00019163,0.0038,65.6389,15.1003,80.6395,0,U,39008,999,4959,0,-.266E-5,0
ZHONGXING-12,2012-067A,2026-06-11T22:23:16.215648,1.00269549,.00030302,0.0088,23.8258,58.0344,241.7132,0,U,39017,999,4945,0,-.19E-5,0
EUTELSAT 70B,2012-069A,2026-06-11T22:33:45.630144,1.00272413,.00040313,0.0618,4.3644,69.0076,235.8317,0,U,39020,999,4945,0,-.27E-6,0
YAMAL 402,2012-070A,2026-06-11T22:30:18.901728,1.00272630,.00036327,1.2510,84.2206,353.1879,215.3520,0,U,39022,999,4934,0,.101E-5,0
SKYNET 5D,2012-075A,2026-06-11T22:03:05.528736,1.00273530,.00037014,0.0698,338.0499,116.0233,189.7641,0,U,39034,999,4910,0,.115E-5,0
MEXSAT 3,2012-075B,2026-06-11T14:24:39.795840,1.00274888,.00007799,0.0215,3.0292,40.5198,317.7636,0,U,39035,999,699,0,0,0
TDRS 11,2013-004A,2026-06-11T20:58:18.372864,1.00267608,.00055989,3.5133,31.1778,17.9727,351.2787,0,U,39070,999,4664,0,.92E-6,0
AMAZONAS 3,2013-006A,2026-06-11T22:59:42.736992,1.00266964,.00021837,0.0399,237.4150,239.8811,66.8861,0,U,39078,999,4486,0,-.266E-5,0
AZERSPACE 1,2013-006B,2026-06-11T22:01:05.721312,1.00273046,.00013546,0.0028,345.1284,138.3153,153.0915,0,U,39079,999,4875,0,.149E-5,0
SBIRS GEO-2 (USA 241),2013-011A,2026-06-11T16:25:48.882720,1.00271261,.0002197,4.4784,52.5086,19.1976,24.9652,0,U,39120,999,4848,0,-.273E-5,0
EUTELSAT 117 WEST A,2013-012A,2026-06-11T16:06:35.726112,1.00271806,.00025586,0.0137,331.4327,112.9693,300.4624,0,U,39122,999,4837,0,.4E-7,0
ANIK G1,2013-014A,2026-06-11T21:17:25.848672,1.00269928,.0001469,0.0261,341.8353,92.7913,37.6417,0,U,39127,999,4820,0,0,0
ZHONGXING-11,2013-020A,2026-06-11T23:50:27.415968,1.00271700,.00022513,0.0429,58.2436,17.8622,279.7655,0,U,39157,999,4784,0,-.275E-5,0
EUTELSAT 7B,2013-022A,2026-06-11T21:49:59.951424,1.00271774,.00047614,0.0721,18.1315,17.5791,199.0321,0,U,39163,999,4789,0,.64E-6,0
WGS F5 (USA 243),2013-024A,2026-06-11T23:05:24.690912,1.00271730,.0000218,0.0188,326.4119,306.9575,280.7817,0,U,39168,999,4712,0,-.268E-5,0
SES-6,2013-026A,2026-06-11T21:36:27.039744,1.00271168,.00025156,0.0175,340.0591,116.0022,87.7946,0,U,39172,999,4767,0,-.245E-5,0
IRNSS-1A,2013-034A,2026-05-22T20:37:38.469792,1.00280263,.00166187,35.6649,64.2334,185.3754,355.4646,0,U,39199,999,4711,0,.59E-6,0
MUOS-2,2013-036A,2026-06-11T20:54:03.779712,1.00272281,.00507683,4.9852,45.5271,177.7423,162.3931,0,U,39206,999,4713,0,0,0
ALPHASAT,2013-038A,2026-06-11T22:50:01.036032,1.00268767,.00016745,2.9982,1.3700,83.3995,182.8621,0,U,39215,999,4396,0,.147E-5,0
INSAT-3D,2013-038B,2026-06-11T22:24:55.935072,1.00271777,.00006198,1.9118,82.6035,312.0541,331.3729,0,U,39216,999,4702,0,-.324E-5,0
WGS F6 (USA 244),2013-041A,2026-06-11T17:44:07.001088,1.00271177,.00002338,0.0249,358.9483,278.9615,113.0116,0,U,39222,999,4600,0,0,0
ES'HAIL 1,2013-044A,2026-06-11T22:47:45.240288,1.00272142,.00021403,0.0510,13.3563,64.2450,190.0959,0,U,39233,999,4657,0,.159E-5,0
