HYLAS 2                 
1 38741U 12043B   26162.89395142 -.00000242  00000+0  00000+0 0  9998
2 38741   2.4129  81.1305 0002479  23.7052  44.6609  1.00272103 50721
INTELSAT 21 (IS-21)     
1 38749U 12045A   26162.95830291 -.00000269  00000+0  00000+0 0  9993
2 38749   0.0174 292.1702 0001310 161.3743  93.7423  1.00272216 50473
ASTRA 2F                
1 38778U 12051A   26162.95204649  .00000166  00000+0  00000+0 0  9999
2 38778   0.0758 259.9934 0001714 279.3197  91.9354  1.00274087 41080
GSAT-10                 
1 38779U 12051B   26162.49709873  .00000000  00000+0  00000+0 0  9995
2 38779   0.0170 344.7003 0007747 106.3247  70.7939  1.00269530 50043
INTELSAT 23 (IS-23)     
1 38867U 12057A   26162.96209133 -.00000269  00000+0  00000+0 0  9993
2 38867   0.0122 311.8277 0000076 221.3491  20.4699  1.00268120 49905
BEIDOU-2 G6             
1 38953U 12059A   26162.93561624 -.00000162  00000+0  00000+0 0  9996
2 38953   4.4067  73.5814 0009810 324.8626 282.6734  1.00273293 49853
LUCH-5B                 
1 38977U 12061A   26161.97829617 -.00000127  00000+0  00000+0 0  9998
2 38977  10.4672  49.9410 0001940 141.4195  43.8723  1.00273172 49544
STAR ONE C3             
1 38991U 12062A   26162.89351809 -.00000233  00000+0  00000+0 0  9998
2 38991   0.0180  51.7105 0002190  41.3619  53.8373  1.00272463 49711
EUTELSAT 21B            
1 38992U 12062B   26162.92802961  .00000146  00000+0  00000+0 0  9995
2 38992   0.0654   0.9857 0003073  77.6722 177.2722  1.00272656 49775
ECHOSTAR 16             
1 39008U 12065A   26162.89620477 -.00000266  00000+0  00000+0 0  9997
2 39008   0.0038  65.6389 0001916  15.1003  80.6395  1.00271805 49599
ZHONGXING-12            
1 39017U 12067A   26162.93282657 -.00000190  00000+0  00000+0 0  9994
2 39017   0.0088  23.8258 0003030  58.0344 241.7132  1.00269549 49454
EUTELSAT 70B            
1 39020U 12069A   26162.94011146 -.00000027  00000+0  00000+0 0  9993
2 39020   0.0618   4.3644 0004031  69.0076 235.8317  1.00272413 49459
YAMAL 402               
1 39022U 12070A   26162.93771877  .00000101  00000+0  00000+0 0  9992
2 39022   1.2510  84.2206 0003632 353.1879 215.3520  1.00272630 49348
SKYNET 5D               
1 39034U 12075A   26162.91881399  .00000115  00000+0  00000+0 0  9994
2 39034   0.0698 338.0499 0003701 116.0233 189.7641  1.00273530 49108
MEXSAT 3                
1 39035U 12075B   26162.60046060  .00000000  00000+0  00000+0 0  9992
2 39035   0.0215   3.0292 0000779  40.5198 317.7636  1.00274888  6991
TDRS 11                 
1 39070U 13004A   26162.87382376  .00000092  00000+0  00000+0 0  9997
2 39070   3.5133  31.1778 0005598  17.9727 351.2787  1.00267608 46646
AMAZONAS 3              
1 39078U 13006A   26162.95813353 -.00000266  00000+0  00000+0 0  9994
2 39078   0.0399 237.4150 0002183 239.8811  66.8861  1.00266964 44869
AZERSPACE 1             
1 39079U 13006B   26162.91742733  .00000149  00000+0  00000+0 0  9993
2 39079   0.0028 345.1284 0001354 138.3153 153.0915  1.00273046 48755
SBIRS GEO-2 (USA 241)   
1 39120U 13011A   26162.68459355 -.00000273  00000+0  00000+0 0  9994
2 39120   4.4784  52.5086 0002197  19.1976  24.9652  1.00271261 48484
EUTELSAT 117 WEST A     
1 39122U 13012A   26162.67124683  .00000004  00000+0  00000+0 0  9990
2 39122   0.0137 331.4327 0002558 112.9693 300.4624  1.00271806 48370
ANIK G1                 
1 39127U 13014A   26162.88710473  .00000000  00000+0  00000+0 0  9994
2 39127   0.0261 341.8353 0001469  92.7913  37.6417  1.00269928 48200
ZHONGXING-11            
1 39157U 13020A   26162.99337287 -.00000275  00000+0  00000+0 0  9999
2 39157   0.0429  58.2436 0002251  17.8622 279.7655  1.00271700 47848
EUTELSAT 7B             
1 39163U 13022A   26162.90972166  .00000064  00000+0  00000+0 0  9995
2 39163   0.0721  18.1315 0004761  17.5791 199.0321  1.00271774 47893
WGS F5 (USA 243)        
1 39168U 13024A   26162.96209133 -.00000268  00000+0  00000+0 0  9992
2 39168   0.0188 326.4119 0000218 306.9575 280.7817  1.00271730 47126
SES-6                   
1 39172U 13026A   26162.90031296 -.00000245  00000+0  00000+0 0  9991
2 39172   0.0175 340.0591 0002515 116.0022  87.7946  1.00271168 47675
IRNSS-1A                
1 39199U 13034A   26142.85947303  .00000059  00000+0  00000+0 0  9998
2 39199  35.6649  64.2334 0016618 185.3754 355.4646  1.00280263 47111
MUOS-2                  
1 39206U 13036A   26162.87087708  .00000000  00000+0  00000+0 0  9993
2 39206   4.9852  45.5271 0050768 177.7423 162.3931  1.00272281 47134
ALPHASAT                
1 39215U 13038A   26162.95140088  .00000147  00000+0  00000+0 0  9997
2 39215   2.9982   1.3700 0001674  83.3995 182.8621  1.00268767 43965
INSAT-3D                
1 39216U 13038B   26162.93398073 -.00000324  00000+0  00000+0 0  9993
2 39216   1.9118  82.6035 0000619 312.0541 331.3729  1.00271777 47022
WGS F6 (USA 244)        
1 39222U 13041A   26162.73896992  .00000000  00000+0  00000+0 0  9995
2 39222   0.0249 358.9483 0000233 278.9615 113.0116  1.00271177 46000
ES'HAIL 1               
1 39233U 13044A   26162.94982917  .00000159  00000+0  00000+0 0  9991
2 39233   0.0510  13.3563 0002140  64.2450 190.0959  1.00272142 46571
